FLOCK 4G-21             
1 62651U 25009AU  26068.19487675  .00013648  00000+0  49619-3 0  9998
2 62651  97.4032 151.1274 0000465 329.5782  30.5431 15.28381075 63677
STARLINK-34025          
1 63824U 25092W   26068.32904435  .00031444  00000+0  11471-2 0  9994
2 63824  42.9976 174.2202 0001362 270.1962  89.8733 15.27584421 48503
